NORAD_CAT_ID,OBJECT_NAME,OBJECT_TYPE,EPOCH,MEAN_MOTION,ECCENTRICITY,INCLINATION,RA_OF_ASC_NODE,ARG_OF_PERICENTER,MEAN_ANOMALY,BSTAR,MEAN_MOTION_DOT,MEAN_MOTION_DDOT,TLE_LINE0,TLE_LINE1,TLE_LINE2,SEMIMAJOR_AXIS,PERIOD,APOGEE,PERIGEE,DECAYED
52665.0,STARLINK-4064,PAYLOAD,2022-06-13 14:00:01,15.59362429,0.0001557,53.2172,168.9015,44.7338,142.0497,-0.0097483,-0.00717327,0.0,0 STARLINK-4064,1 52665U 22053K   22164.58334491 -.00717327  00000-0 -97483-2 0  9990,2 52665  53.2172 168.9015 0001557  44.7338 142.0497 15.59362429  1300,6767.638000000001,92.345,390.557,388.449,0.0
52665.0,STARLINK-4064,PAYLOAD,2022-06-13 22:00:00,15.58850065,0.0001548,53.2173,167.2849,44.0052,214.768,-0.0098839,-0.00713539,0.0,0 STARLINK-4064,1 52665U 22053K   22164.91667824 -.00713539  00000-0 -98839-2 0  9993,2 52665  53.2173 167.2849 0001548  44.0052 214.7680 15.58850065  4912,6769.121,92.376,392.034,389.93800000000016,0.0
52665.0,STARLINK-4064,PAYLOAD,2022-06-14 14:00:01,15.57831676,0.000146,53.2172,164.0609,39.1878,1.7206,-0.010294,-0.00714813,0.0,0 STARLINK-4064,1 52665U 22053K   22165.58334491 -.00714813  00000-0 -10294-1 0  9992,2 52665  53.2172 164.0609 0001460  39.1878   1.7206 15.57831676  1308,6772.071,92.436,394.924,392.947,0.0
52665.0,STARLINK-4064,PAYLOAD,2022-06-14 22:00:00,15.57320883,0.0001732,53.2173,162.4482,33.4108,77.6486,-0.010496,-0.00714962,0.0,0 STARLINK-4064,1 52665U 22053K   22165.91667824 -.00714962  00000-0 -10496-1 0  9997,2 52665  53.2173 162.4482 0001732  33.4108  77.6486 15.57320883  5078,6773.551,92.466,396.59,394.24300000000005,0.0
52665.0,STARLINK-4064,PAYLOAD,2022-06-15 14:00:01,15.56302993,0.0001501,53.2171,159.2313,48.1864,201.3315,-0.010948,-0.00717517,0.0,0 STARLINK-4064,1 52665U 22053K   22166.58334491 -.00717517  00000-0 -10948-1 0  9993,2 52665  53.2171 159.2313 0001501  48.1864 201.3315 15.56302993  1309,6776.505,92.527,399.387,397.352,0.0
52665.0,STARLINK-4064,PAYLOAD,2022-06-15 22:00:00,15.55789416,0.0001496999999999,53.2173,157.6223,41.8495,275.9816,-0.011061,-0.00711691,0.0,0 STARLINK-4064,1 52665U 22053K   22166.91667824 -.00711691  00000-0 -11061-1 0  9993,2 52665  53.2173 157.6223 0001497  41.8495 275.9816 15.55789416  5223,6777.996,92.558,400.876,398.846,0.0
52665.0,STARLINK-4064,PAYLOAD,2022-06-16 02:00:01,15.55529295,0.0001917,53.217,156.8193,35.3618,136.3967,-0.011023,-0.00703257,0.0,0 STARLINK-4064,1 52665U 22053K   22167.08334491 -.00703257  00000-0 -11023-1 0  9990,2 52665  53.2170 156.8193 0001917  35.3618 136.3967 15.55529295  1308,6778.751,92.573,401.916,399.317,0.0
52665.0,STARLINK-4064,PAYLOAD,2022-06-19 14:00:01,15.50225903,0.0001379,53.2174,140.0235,34.4567,274.3325,-0.0076048,-0.00414971,0.0,0 STARLINK-4064,1 52665U 22053K   22170.58334491 -.00414971  00000-0 -76048-2 0  9990,2 52665  53.2174 140.0235 0001379  34.4567 274.3325 15.50225903  1304,6794.203,92.89,417.005,415.131,0.0
52665.0,STARLINK-4064,PAYLOAD,2022-06-19 18:51:47,15.49857721,0.0003956,53.2267,138.9614,119.1231,241.1077,0.0,-4.54e-06,0.0,0 STARLINK-4064,1 52665U 22053K   22170.78596152 -.00000454  00000-0  00000+0 0  9994,2 52665  53.2267 138.9614 0003956 119.1231 241.1077 15.49857721  5831,6795.279,92.912,419.832,414.456,0.0
52665.0,STARLINK-4064,PAYLOAD,2022-06-19 22:00:00,15.49884103,0.000169,53.2175,138.4291,41.1577,328.7787,5.6061e-05,2.731e-05,0.0,0 STARLINK-4064,1 52665U 22053K   22170.91667824  .00002731  00000-0  56061-4 0  9996,2 52665  53.2175 138.4291 0001690  41.1577 328.7787 15.49884103  5851,6795.2019999999975,92.91,418.215,415.918,0.0
52665.0,STARLINK-4064,PAYLOAD,2022-06-20 06:00:00,15.49960597,0.0001732,53.2154,136.83100000000002,32.7719,38.12,-0.0014139,-0.00080099,0.0,0 STARLINK-4064,1 52665U 22053K   22171.25001157 -.00080099  00000-0 -14139-2 0  9998,2 52665  53.2154 136.8310 0001732  32.7719  38.1200 15.49960597  5903,6794.978,92.906,418.02,415.666,0.0
52665.0,STARLINK-4064,PAYLOAD,2022-06-20 10:00:00,15.49857587,0.0001864,53.215,136.0343,38.9365,242.4096,-0.00022135,-0.00012982,0.0,0 STARLINK-4064,1 52665U 22053K   22171.41667824 -.00012982  00000-0 -22135-3 0  9997,2 52665  53.2150 136.0343 0001864  38.9365 242.4096 15.49857587  5927,6795.279,92.912,418.411,415.878,0.0
52665.0,STARLINK-4064,PAYLOAD,2022-06-20 14:00:01,15.49856209,0.0001815,53.2152,135.2367,43.6468,88.1378,-0.00036735,-0.00021224,0.0,0 STARLINK-4064,1 52665U 22053K   22171.58334491 -.00021224  00000-0 -36735-3 0  9996,2 52665  53.2152 135.2367 0001815  43.6468  88.1378 15.49856209  1305,6795.283,92.912,418.382,415.915,0.0
52665.0,STARLINK-4064,PAYLOAD,2022-06-20 22:00:00,15.49860322,0.0001740999999999,53.2153,133.6431,49.6027,143.0415,-1.5175e-05,-1.312e-05,0.0,0 STARLINK-4064,1 52665U 22053K   22171.91667824 -.00001312  00000-0 -15175-4 0  9994,2 52665  53.2153 133.6431 0001741  49.6027 143.0415 15.49860322  1309,6795.271,92.912,418.319,415.953,0.0
52665.0,STARLINK-4064,PAYLOAD,2022-06-21 14:00:01,15.49831025,0.0001648,53.2144,130.4577,39.67,274.7041,0.001458,0.00083022,0.0,0 STARLINK-4064,1 52665U 22053K   22172.58334491  .00083022  00000-0  14580-2 0  9992,2 52665  53.2144 130.4577 0001648  39.6700 274.7041 15.49831025  6106,6795.357,92.913,418.342,416.102,0.0
52665.0,STARLINK-4064,PAYLOAD,2022-06-21 22:00:00,15.49881018,0.0001655,53.2158,128.8666,47.6211,327.6319,0.0016495999999999,0.00094295,0.0,0 STARLINK-4064,1 52665U 22053K   22172.91667824  .00094295  00000-0  16496-2 0  9990,2 52665  53.2158 128.8666 0001655  47.6211 327.6319 15.49881018  1305,6795.2109999999975,92.91,418.2,415.951,0.0
52665.0,STARLINK-4064,PAYLOAD,2022-06-22 06:00:00,15.50096559,0.0001931,53.2168,127.2785,42.6383,33.5371,-0.012675,-0.00666701,0.0,0 STARLINK-4064,1 52665U 22053K   22173.25001157 -.00666701  00000-0 -12675-1 0  9992,2 52665  53.2168 127.2785 0001931  42.6383  33.5371 15.50096559  6219,6794.581,92.897,417.758,415.134,0.0
52665.0,STARLINK-4064,PAYLOAD,2022-06-22 14:00:01,15.496262,0.000166,53.2174,125.6863,39.3522,97.7014,-0.013868,-0.0072218,0.0,0 STARLINK-4064,1 52665U 22053K   22173.58334491 -.00722180  00000-0 -13868-1 0  9997,2 52665  53.2174 125.6863 0001660  39.3522  97.7014 15.49626200  1303,6795.956,92.926,418.949,416.693,0.0
52665.0,STARLINK-4064,PAYLOAD,2022-06-22 22:00:00,15.49114749,0.0001720999999999,53.2175,124.0946,43.2823,154.0619,-0.014058,-0.00719171,0.0,0 STARLINK-4064,1 52665U 22053K   22173.91667824 -.00719171  00000-0 -14058-1 0  9991,2 52665  53.2175 124.0946 0001721  43.2823 154.0619 15.49114749  6319,6797.451,92.956,420.486,418.147,0.0
52665.0,STARLINK-4064,PAYLOAD,2022-06-23 14:00:01,15.48097645,0.0001365,53.2175,120.9159,50.0728,266.0124,-0.014694,-0.00724736,0.0,0 STARLINK-4064,1 52665U 22053K   22174.58334491 -.00724736  00000-0 -14694-1 0  9995,2 52665  53.2175 120.9159 0001365  50.0728 266.0124 15.48097645  1307,6800.428000000001,93.017,423.222,421.365,0.0
52665.0,STARLINK-4064,PAYLOAD,2022-06-23 22:00:00,15.47586351,0.0001525,53.2176,119.3282,39.8697,334.6676,-0.014894,-0.00721811,0.0,0 STARLINK-4064,1 52665U 22053K   22174.91667824 -.00721811  00000-0 -14894-1 0  9994,2 52665  53.2176 119.3282 0001525  39.8697 334.6676 15.47586351  6478,6801.926,93.048,424.828,422.754,0.0
52665.0,STARLINK-4064,PAYLOAD,2022-06-24 14:00:01,15.465648300000002,0.0001662,53.2175,116.1566,39.3513,90.2518,-0.015374,-0.00719237,0.0,0 STARLINK-4064,1 52665U 22053K   22175.58334491 -.00719237  00000-0 -15374-1 0  9992,2 52665  53.2175 116.1566 0001662  39.3513  90.2518 15.46564830  1305,6804.920999999999,93.11,427.917,425.655,0.0
52665.0,STARLINK-4064,PAYLOAD,2022-06-24 22:00:01,15.46054504,0.0001698,53.2177,114.5727,43.7463,142.5346,-0.015631,-0.00718501,0.0,0 STARLINK-4064,1 52665U 22053K   22175.91668981 -.00718501  00000-0 -15631-1 0  9992,2 52665  53.2177 114.5727 0001698  43.7463 142.5346 15.46054504  1302,6806.418000000002,93.14,429.439,427.128,0.0
52665.0,STARLINK-4064,PAYLOAD,2022-06-25 06:00:00,15.45542898,0.000169,53.2175,112.9915,44.0103,198.2063,-0.015833,-0.0071528999999999,0.0,0 STARLINK-4064,1 52665U 22053K   22176.25001157 -.00715290  00000-0 -15833-1 0  9992,2 52665  53.2175 112.9915 0001690  44.0103 198.2063 15.45542898  6674,6807.92,93.171,430.936,428.635,0.0
52665.0,STARLINK-4064,PAYLOAD,2022-06-25 14:00:01,15.4503659,0.0001527,53.2175,111.4082,43.351000000000006,254.2534,-0.016275,-0.00721996,0.0,0 STARLINK-4064,1 52665U 22053K   22176.58334491 -.00721996  00000-0 -16275-1 0  9999,2 52665  53.2175 111.4082 0001527  43.3510 254.2534 15.45036590  1304,6809.408,93.202,432.312,430.233,0.0
52665.0,STARLINK-4064,PAYLOAD,2022-06-25 22:00:00,15.44526945,0.0001624,53.2177,109.8282,37.1848,315.1942,-0.016568,-0.00722255,0.0,0 STARLINK-4064,1 52665U 22053K   22176.91667824 -.00722255  00000-0 -16568-1 0  9999,2 52665  53.2177 109.8282 0001624  37.1848 315.1942 15.44526945  1309,6810.905,93.232,433.876,431.664,0.0
52665.0,STARLINK-4064,PAYLOAD,2022-06-26 06:00:00,15.44013541,0.0001509,53.2173,108.2507,40.8435,5.698,-0.016715,-0.00716434,0.0,0 STARLINK-4064,1 52665U 22053K   22177.25001157 -.00716434  00000-0 -16715-1 0  9994,2 52665  53.2173 108.2507 0001509  40.8435   5.6980 15.44013541  6832,6812.415,93.263,435.3080000000001,433.252,0.0
52665.0,STARLINK-4064,PAYLOAD,2022-06-26 14:00:01,15.43504118,0.0001665,53.2174,106.6709,36.385,63.7714,-0.017037,-0.0071761,0.0,0 STARLINK-4064,1 52665U 22053K   22177.58335648 -.00717610  00000-0 -17037-1 0  9990,2 52665  53.2174 106.6709 0001665  36.3850  63.7714 15.43504118  1304,6813.9140000000025,93.294,436.913,434.644,0.0
52665.0,STARLINK-4064,PAYLOAD,2022-06-26 22:00:00,15.42995082,0.0001925,53.2175,105.0946,34.9352,118.0929,-0.01737,-0.00719038,0.0,0 STARLINK-4064,1 52665U 22053K   22177.91667824 -.00719038  00000-0 -17370-1 0  9997,2 52665  53.2175 105.0946 0001925  34.9352 118.0929 15.42995082  1306,6815.413000000001,93.325,438.589,435.966,0.0
